start=new Date('2022-02-06T00:00:00.000Z').valueOf();
sats=[{"OBJECT_ID":"2021-041J","OBJECT_TYPE":"PAYLOAD","DECAY_DATE":null,"ELEMENT_SET_NO":"999","PERIAPSIS":"546.239","MEAN_MOTION":"15.06398486","CLASSIFICATION_TYPE":"U","MEAN_ELEMENT_THEORY":"SGP4","BSTAR":"0.00113470000000","GP_ID":"195370208","EPOCH":"2022-02-05T14:00:01.000224","LAUNCH_DATE":"2021-05-15","MEAN_MOTION_DOT":"0.00016659","NORAD_CAT_ID":"48561","FILE":"3292709","INCLINATION":"53.0531","REF_FRAME":"TEME","MEAN_MOTION_DDOT":"0.0000000000000","RA_OF_ASC_NODE":"324.4448","MEAN_ANOMALY":"234.3104","TIME_SYSTEM":"UTC","TLE_LINE1":"1 48561U 21041J   22036.58334491  .00016659  00000-0  11347-2 0  9997","RCS_SIZE":"LARGE","REV_AT_EPOCH":"358","COUNTRY_CODE":"US","OBJECT_NAME":"STARLINK-2186","APOAPSIS":"548.197","SEMIMAJOR_AXIS":"6925.353","ARG_OF_PERICENTER":"82.8768","SITE":"AFETR","CENTER_NAME":"EARTH","PERIOD":"95.592","EPHEMERIS_TYPE":"0","TLE_LINE2":"2 48561  53.0531 324.4448 0001414  82.8768 234.3104 15.06398486  3584","ECCENTRICITY":"0.00014140"},{"OBJECT_NAME":"STARLINK-2187","APOAPSIS":"548.110","ARG_OF_PERICENTER":"92.3432","SEMIMAJOR_AXIS":"6925.345","CENTER_NAME":"EARTH","SITE":"AFETR","PERIOD":"95.592","EPHEMERIS_TYPE":"0","TLE_LINE2":"2 48562  53.0571 354.3177 0001299  92.3432 267.7706 15.06400999 40565","ECCENTRICITY":"0.00012990","REF_FRAME":"TEME","MEAN_MOTION_DDOT":"0.0000000000000","RA_OF_ASC_NODE":"354.3177","MEAN_ANOMALY":"267.7706","TIME_SYSTEM":"UTC","TLE_LINE1":"1 48562U 21041K   22036.61156868  .00002080  00000-0  15851-3 0  9990","RCS_SIZE":"LARGE","REV_AT_EPOCH":"4056","COUNTRY_CODE":"US","CLASSIFICATION_TYPE":"U","MEAN_ELEMENT_THEORY":"SGP4","BSTAR":"0.00015851000000","GP_ID":"195375982","EPOCH":"2022-02-05T14:40:39.533952","LAUNCH_DATE":"2021-05-15","MEAN_MOTION_DOT":"0.00002080","NORAD_CAT_ID":"48562","FILE":"3292871","INCLINATION":"53.0571","OBJECT_TYPE":"PAYLOAD","OBJECT_ID":"2021-041K","DECAY_DATE":null,"ELEMENT_SET_NO":"999","PERIAPSIS":"546.311","MEAN_MOTION":"15.06400999"},{"LAUNCH_DATE":"2021-05-15","MEAN_MOTION_DOT":"-0.00000566","NORAD_CAT_ID":"48563","INCLINATION":"53.0553","FILE":"3292709","CLASSIFICATION_TYPE":"U","MEAN_ELEMENT_THEORY":"SGP4","BSTAR":"-0.00001908500000","GP_ID":"195369706","EPOCH":"2022-02-05T08:45:00.752256","ELEMENT_SET_NO":"999","PERIAPSIS":"546.199","MEAN_MOTION":"15.06405286","OBJECT_TYPE":"PAYLOAD","OBJECT_ID":"2021-041L","DECAY_DATE":null,"CENTER_NAME":"EARTH","SITE":"AFETR","PERIOD":"95.592","EPHEMERIS_TYPE":"0","TLE_LINE2":"2 48563  53.0553 355.4254 0001441  71.8749 288.2397 15.06405286 40126","ECCENTRICITY":"0.00014410","OBJECT_NAME":"STARLINK-2188","APOAPSIS":"548.195","SEMIMAJOR_AXIS":"6925.332","ARG_OF_PERICENTER":"71.8749","TLE_LINE1":"1 48563U 21041L   22036.36459204 -.00000566  00000-0 -19085-4 0  9996","RCS_SIZE":"LARGE","REV_AT_EPOCH":"4012","COUNTRY_CODE":"US","REF_FRAME":"TEME","MEAN_MOTION_DDOT":"0.0000000000000","RA_OF_ASC_NODE":"355.4254","MEAN_ANOMALY":"288.2397","TIME_SYSTEM":"UTC"},{"OBJECT_NAME":"STARLINK-2190","ARG_OF_PERICENTER":"73.1168","SEMIMAJOR_AXIS":"6925.312","APOAPSIS":"548.328","PERIOD":"95.591","EPHEMERIS_TYPE":"0","SITE":"AFETR","CENTER_NAME":"EARTH","ECCENTRICITY":"0.00016620","TLE_LINE2":"2 48564  53.0550 355.7584 0001662  73.1168 287.0003 15.06411838 40512","MEAN_ANOMALY":"287.0003","RA_OF_ASC_NODE":"355.7584","REF_FRAME":"TEME","MEAN_MOTION_DDOT":"0.0000000000000","TIME_SYSTEM":"UTC","RCS_SIZE":"LARGE","TLE_LINE1":"1 48564U 21041M   22036.29087466  .00002666  00000-0  19776-3 0  9993","COUNTRY_CODE":"US","REV_AT_EPOCH":"4051","BSTAR":"0.00019776000000","MEAN_ELEMENT_THEORY":"SGP4","CLASSIFICATION_TYPE":"U","EPOCH":"2022-02-05T06:58:51.570624","GP_ID":"195346340","MEAN_MOTION_DOT":"0.00002666","LAUNCH_DATE":"2021-05-15","FILE":"3292679","INCLINATION":"53.0550","NORAD_CAT_ID":"48564","DECAY_DATE":null,"OBJECT_TYPE":"PAYLOAD","OBJECT_ID":"2021-041M","ELEMENT_SET_NO":"999","MEAN_MOTION":"15.06411838","PERIAPSIS":"546.026"},{"COUNTRY_CODE":"US","REV_AT_EPOCH":"4012","RCS_SIZE":"LARGE","TLE_LINE1":"1 48565U 21041N   22036.35353532 -.00002954  00000-0 -17948-3 0  9992","TIME_SYSTEM":"UTC","RA_OF_ASC_NODE":"355.4780","MEAN_ANOMALY":"298.4863","REF_FRAME":"TEME","MEAN_MOTION_DDOT":"0.0000000000000","TLE_LINE2":"2 48565  53.0547 355.4780 0001773  61.6304 298.4863 15.06397281 40123","ECCENTRICITY":"0.00017730","EPHEMERIS_TYPE":"0","PERIOD":"95.592","SITE":"AFETR","CENTER_NAME":"EARTH","APOAPSIS":"548.450","SEMIMAJOR_AXIS":"6925.357","ARG_OF_PERICENTER":"61.6304","OBJECT_NAME":"STARLINK-2191","MEAN_MOTION":"15.06397281","PERIAPSIS":"545.994","ELEMENT_SET_NO":"999","OBJECT_ID":"2021-041N","OBJECT_TYPE":"PAYLOAD","DECAY_DATE":null,"FILE":"3292709","INCLINATION":"53.0547","NORAD_CAT_ID":"48565","MEAN_MOTION_DOT":"-0.00002954","LAUNCH_DATE":"2021-05-15","GP_ID":"195370708","EPOCH":"2022-02-05T08:29:05.451648","MEAN_ELEMENT_THEORY":"SGP4","BSTAR":"-0.00017948000000","CLASSIFICATION_TYPE":"U"},{"FILE":"3292709","INCLINATION":"53.0563","NORAD_CAT_ID":"48566","MEAN_MOTION_DOT":"-0.00000542","LAUNCH_DATE":"2021-05-15","GP_ID":"195369201","EPOCH":"2022-02-05T09:03:33.632640","MEAN_ELEMENT_THEORY":"SGP4","BSTAR":"-0.00001751600000","CLASSIFICATION_TYPE":"U","MEAN_MOTION":"15.06402113","PERIAPSIS":"546.080","ELEMENT_SET_NO":"999","OBJECT_ID":"2021-041P","OBJECT_TYPE":"PAYLOAD","DECAY_DATE":null,"TLE_LINE2":"2 48566  53.0563   5.3648 0001628  68.9810 291.1353 15.06402113 39984","ECCENTRICITY":"0.00016280","EPHEMERIS_TYPE":"0","PERIOD":"95.592","SITE":"AFETR","CENTER_NAME":"EARTH","APOAPSIS":"548.335","SEMIMAJOR_AXIS":"6925.342","ARG_OF_PERICENTER":"68.9810","OBJECT_NAME":"STARLINK-2214","COUNTRY_CODE":"US","REV_AT_EPOCH":"3998","RCS_SIZE":"LARGE","TLE_LINE1":"1 48566U 21041P   22036.37747260 -.00000542  00000-0 -17516-4 0  9993","TIME_SYSTEM":"UTC","RA_OF_ASC_NODE":"5.3648","MEAN_ANOMALY":"291.1353","REF_FRAME":"TEME","MEAN_MOTION_DDOT":"0.0000000000000"},{"TLE_LINE2":"2 48567  53.0566   6.1906 0001497  65.6726 294.4419 15.06413581 39955","ECCENTRICITY":"0.00014970","CENTER_NAME":"EARTH","SITE":"AFETR","PERIOD":"95.591","EPHEMERIS_TYPE":"0","APOAPSIS":"548.209","ARG_OF_PERICENTER":"65.6726","SEMIMAJOR_AXIS":"6925.307","OBJECT_NAME":"STARLINK-2215","REV_AT_EPOCH":"3995","COUNTRY_CODE":"US","TLE_LINE1":"1 48567U 21041Q   22036.19042848  .00001669  00000-0  13089-3 0  9993","RCS_SIZE":"LARGE","TIME_SYSTEM":"UTC","MEAN_MOTION_DDOT":"0.0000000000000","REF_FRAME":"TEME","RA_OF_ASC_NODE":"6.1906","MEAN_ANOMALY":"294.4419","NORAD_CAT_ID":"48567","FILE":"3292709","INCLINATION":"53.0566","LAUNCH_DATE":"2021-05-15","MEAN_MOTION_DOT":"0.00001669","GP_ID":"195369207","EPOCH":"2022-02-05T04:34:13.020672","CLASSIFICATION_TYPE":"U","MEAN_ELEMENT_THEORY":"SGP4","BSTAR":"0.00013089000000","PERIAPSIS":"546.135","MEAN_MOTION":"15.06413581","ELEMENT_SET_NO":"999","OBJECT_TYPE":"PAYLOAD","OBJECT_ID":"2021-041Q","DECAY_DATE":null},{"REF_FRAME":"TEME","MEAN_MOTION_DDOT":"0.0000000000000","MEAN_ANOMALY":"284.7907","RA_OF_ASC_NODE":"353.4581","TIME_SYSTEM":"UTC","TLE_LINE1":"1 48568U 21041R   22036.79953187 -.00003323  00000-0 -20434-3 0  9990","RCS_SIZE":"LARGE","REV_AT_EPOCH":"4058","COUNTRY_CODE":"US","OBJECT_NAME":"STARLINK-2217","SEMIMAJOR_AXIS":"6925.378","ARG_OF_PERICENTER":"75.3260","APOAPSIS":"548.358","CENTER_NAME":"EARTH","SITE":"AFETR","EPHEMERIS_TYPE":"0","PERIOD":"95.593","ECCENTRICITY":"0.00016100","TLE_LINE2":"2 48568  53.0554 353.4581 0001610  75.3260 284.7907 15.06390335 40584","DECAY_DATE":null,"OBJECT_TYPE":"PAYLOAD","OBJECT_ID":"2021-041R","ELEMENT_SET_NO":"999","PERIAPSIS":"546.128","MEAN_MOTION":"15.06390335","CLASSIFICATION_TYPE":"U","BSTAR":"-0.00020434000000","MEAN_ELEMENT_THEORY":"SGP4","EPOCH":"2022-02-05T19:11:19.553568","GP_ID":"195376016","LAUNCH_DATE":"2021-05-15","MEAN_MOTION_DOT":"-0.00003323","NORAD_CAT_ID":"48568","FILE":"3292873","INCLINATION":"53.0554"},{"ECCENTRICITY":"0.00015400","TLE_LINE2":"2 48569  53.0556 353.6572 0001540  64.1457 295.9690 15.06388982 40583","EPHEMERIS_TYPE":"0","PERIOD":"95.593","CENTER_NAME":"EARTH","SITE":"AFETR","ARG_OF_PERICENTER":"64.1457","SEMIMAJOR_AXIS":"6925.382","APOAPSIS":"548.314","OBJECT_NAME":"STARLINK-2219","COUNTRY_CODE":"US","REV_AT_EPOCH":"4058","RCS_SIZE":"LARGE","TLE_LINE1":"1 48569U 21041S   22036.75899145 -.00005155  00000-0 -32751-3 0  9990","TIME_SYSTEM":"UTC","MEAN_ANOMALY":"295.9690","RA_OF_ASC_NODE":"353.6572","MEAN_MOTION_DDOT":"0.0000000000000","REF_FRAME":"TEME","FILE":"3292873","INCLINATION":"53.0556","NORAD_CAT_ID":"48569","MEAN_MOTION_DOT":"-0.00005155","LAUNCH_DATE":"2021-05-15","EPOCH":"2022-02-05T18:12:56.861280","GP_ID":"195376023","BSTAR":"-0.00032751000000","MEAN_ELEMENT_THEORY":"SGP4","CLASSIFICATION_TYPE":"U","MEAN_MOTION":"15.06388982","PERIAPSIS":"546.181","ELEMENT_SET_NO":"999","DECAY_DATE":null,"OBJECT_ID":"2021-041S","OBJECT_TYPE":"PAYLOAD"},{"PERIAPSIS":"546.130","MEAN_MOTION":"15.06394440","ELEMENT_SET_NO":"999","OBJECT_ID":"2021-041T","OBJECT_TYPE":"PAYLOAD","DECAY_DATE":null,"NORAD_CAT_ID":"48570","FILE":"3292873","INCLINATION":"53.0550","LAUNCH_DATE":"2021-05-15","MEAN_MOTION_DOT":"-0.00004781","GP_ID":"195376017","EPOCH":"2022-02-05T14:44:36.666528","CLASSIFICATION_TYPE":"U","MEAN_ELEMENT_THEORY":"SGP4","BSTAR":"-0.00030232000000","REV_AT_EPOCH":"4041","COUNTRY_CODE":"US","TLE_LINE1":"1 48570U 21041T   22036.61431327 -.00004781  00000-0 -30232-3 0  9997","RCS_SIZE":"LARGE","TIME_SYSTEM":"UTC","REF_FRAME":"TEME","MEAN_MOTION_DDOT":"0.0000000000000","RA_OF_ASC_NODE":"4.2882","MEAN_ANOMALY":"295.4301","TLE_LINE2":"2 48570  53.0550   4.2882 0001589  64.6852 295.4301 15.06394440 40411","ECCENTRICITY":"0.00015890","SITE":"AFETR","CENTER_NAME":"EARTH","EPHEMERIS_TYPE":"0","PERIOD":"95.592","APOAPSIS":"548.331","SEMIMAJOR_AXIS":"6925.366","ARG_OF_PERICENTER":"64.6852","OBJECT_NAME":"STARLINK-2220"}];
